H1 CPF 01  gfz 2021 01 31 13  5312 tandemx   
H2 1003001  6202 36605    2021 01 31 12 59 42 2021 02 05 00 00 42   120 1 1  0 0 0
H9
10 0 59248  52542.000000  0    4023454.591   5369714.682  -1571943.742
10 0 59248  52662.000000  0    4255052.867   5376918.303   -679792.008
10 0 59248  52782.000000  0    4411607.523   5286811.670    224314.770
10 0 59248  52902.000000  0    4488663.945   5102269.142   1124472.358
10 0 59248  53022.000000  0    4483233.698   4827898.778   2004831.584
10 0 59248  53142.000000  0    4393879.741   4469937.533   2849885.387
10 0 59248  53262.000000  0    4220768.966   4036111.463   3644752.284
10 0 59248  53382.000000  0    3965690.202   3535466.927   4375444.200
10 0 59248  53502.000000  0    3632041.039   2978178.071   5029114.951
10 0 59248  53622.000000  0    3224781.633   2375335.698   5594289.041
10 0 59248  53742.000000  0    2750354.691   1738720.651   6061059.087
10 0 59248  53862.000000  0    2216579.786   1080570.101   6421254.039
10 0 59248  53982.000000  0    1632520.513    413339.520   6668575.827
10 0 59248  54102.000000  0    1008327.656   -250532.382   6798703.474
10 0 59248  54222.000000  0     355061.256   -898854.959   6809365.508
10 0 59248  54342.000000  0    -315505.991  -1519909.924   6700376.917
10 0 59248  54462.000000  0    -991101.004  -2102662.944   6473641.585
10 0 59248  54582.000000  0   -1659174.190  -2636959.725   6133119.517
10 0 59248  54702.000000  0   -2307129.993  -3113702.945   5684761.924
10 0 59248  54822.000000  0   -2922564.423  -3525010.231   5136415.459
10 0 59248  54942.000000  0   -3493506.825  -3864349.344   4497691.421
10 0 59248  55062.000000  0   -4008657.154  -4126645.861   3779800.758
10 0 59248  55182.000000  0   -4457613.426  -4308362.448   2995359.855
10 0 59248  55302.000000  0   -4831086.050  -4407548.347   2158170.107
10 0 59248  55422.000000  0   -5121094.756  -4423857.525   1282972.507
10 0 59248  55542.000000  0   -5321141.331  -4358533.089    385182.336
10 0 59248  55662.000000  0   -5426354.332  -4214359.279   -519389.876
10 0 59248  55782.000000  0   -5433601.849  -3995582.025  -1414825.929
10 0 59248  55902.000000  0   -5341568.510  -3707799.179  -2285390.090
10 0 59248  56022.000000  0   -5150794.228  -3357823.539  -3115812.773
10 0 59248  56142.000000  0   -4863675.867  -2953524.191  -3891562.041
10 0 59248  56262.000000  0   -4484432.724  -2503649.807  -4599098.223
10 0 59248  56382.000000  0   -4019036.365  -2017638.513  -5226107.186
10 0 59248  56502.000000  0   -3475107.504  -1505419.211  -5761707.965
10 0 59248  56622.000000  0   -2861783.167   -977208.458  -6196632.036
10 0 59248  56742.000000  0   -2189557.264   -443307.798  -6523372.559
10 0 59248  56862.000000  0   -1470097.144     86094.330  -6736302.221
10 0 59248  56982.000000  0    -716041.377    601112.184  -6831758.498
10 0 59248  57102.000000  0      59217.915   1092342.220  -6808099.799
10 0 59248  57222.000000  0     841766.539   1551029.981  -6665730.257
10 0 59248  57342.000000  0    1617411.590   1969222.092  -6407096.171
10 0 59248  57462.000000  0    2371933.864   2339902.634  -6036648.504
10 0 59248  57582.000000  0    3091344.527   2657110.373  -5560774.246
10 0 59248  57702.000000  0    3762141.179   2916035.077  -4987696.072
10 0 59248  57822.000000  0    4371562.037   3113092.843  -4327343.009
10 0 59248  57942.000000  0    4907833.300   3245977.989  -3591188.899
10 0 59248  58062.000000  0    5360402.685   3313689.332  -2792060.887
10 0 59248  58182.000000  0    5720154.604   3316531.732  -1943922.164
10 0 59248  58302.000000  0    5979602.934   3256090.911  -1061629.197
10 0 59248  58422.000000  0    6133053.785   3135181.050   -160669.312
10 0 59248  58542.000000  0    6176735.269   2957766.820    743116.500
10 0 59248  58662.000000  0    6108889.560   2728860.522   1633819.521
10 0 59248  58782.000000  0    5929824.487   2454399.621   2495751.591
10 0 59248  58902.000000  0    5641924.154   2141105.087   3313730.743
10 0 59248  59022.000000  0    5249616.069   1796324.399   4073356.378
10 0 59248  59142.000000  0    4759296.892   1427864.158   4761267.767
10 0 59248  59262.000000  0    4179220.280   1043816.474   5365379.145
10 0 59248  59382.000000  0    3519350.277    652383.212   5875092.450
10 0 59248  59502.000000  0    2791179.492    261702.141   6281479.203
10 0 59248  59622.000000  0    2007522.470   -120319.730   6577429.442
10 0 59248  59742.000000  0    1182286.782   -486164.056   6757770.853
10 0 59248  59862.000000  0     330223.091   -828848.090   6819355.170
10 0 59248  59982.000000  0    -533340.008  -1142057.035   6761108.695
10 0 59248  60102.000000  0   -1392771.274  -1420260.217   6584049.145
10 0 59248  60222.000000  0   -2232418.545  -1658808.777   6291267.681
10 0 59248  60342.000000  0   -3036891.570  -1854012.604   5887878.474
10 0 59248  60462.000000  0   -3791345.674  -2003197.870   5380937.805
10 0 59248  60582.000000  0   -4481761.179  -2104743.927   4779326.411
10 0 59248  60702.000000  0   -5095210.126  -2158097.450   4093598.448
10 0 59248  60822.000000  0   -5620105.498  -2163762.907   3335799.223
10 0 59248  60942.000000  0   -6046427.888  -2123270.080   2519255.766
10 0 59248  61062.000000  0   -6365926.120  -2039120.590   1658342.749
10 0 59248  61182.000000  0   -6572286.522  -1914713.320    768224.237
10 0 59248  61302.000000  0   -6661262.054  -1754249.556   -135421.169
10 0 59248  61422.000000  0   -6630761.548  -1562620.777  -1036685.101
10 0 59248  61542.000000  0   -6480894.432  -1345282.294  -1919718.983
10 0 59248  61662.000000  0   -6213970.804  -1108116.412  -2769020.398
10 0 59248  61782.000000  0   -5834457.794   -857288.876  -3569710.647
10 0 59248  61902.000000  0   -5348893.813   -599101.258  -4307797.922
10 0 59248  62022.000000  0   -4765763.442   -339843.175  -4970420.537
10 0 59248  62142.000000  0   -4095336.578    -85648.783  -5546065.939
10 0 59248  62262.000000  0   -3349475.987    157639.433  -6024762.330
10 0 59248  62382.000000  0   -2541419.006    384597.000  -6398239.399
10 0 59248  62502.000000  0   -1685539.242    590330.881  -6660059.147
10 0 59248  62622.000000  0    -797090.635    770578.341  -6805716.343
10 0 59248  62742.000000  0     108060.616    921791.031  -6832706.517
10 0 59248  62862.000000  0    1013711.540   1041201.539  -6740563.822
10 0 59248  62982.000000  0    1903605.357   1126872.317  -6530871.034
10 0 59248  63102.000000  0    2761717.723   1177727.112  -6207235.516
10 0 59248  63222.000000  0    3572540.720   1193563.413  -5775233.124
10 0 59248  63342.000000  0    4321359.598   1175045.614  -5242321.128
10 0 59248  63462.000000  0    4994520.892   1123679.430  -4617721.776
10 0 59248  63582.000000  0    5579686.995   1041768.023  -3912273.695
10 0 59248  63702.000000  0    6066070.384    932349.861  -3138253.211
10 0 59248  63822.000000  0    6444643.219    799119.424  -2309168.322
10 0 59248  63942.000000  0    6708318.209    646332.761  -1439526.777
10 0 59248  64062.000000  0    6852093.798    478698.968   -544580.893
10 0 59248  64182.000000  0    6873158.550    301260.636    359944.173
10 0 59248  64302.000000  0    6770953.649    119266.811   1258132.823
10 0 59248  64422.000000  0    6547190.883    -61960.123   2134167.669
10 0 59248  64542.000000  0    6205823.846   -237158.572   2972617.894
10 0 59248  64662.000000  0    5752973.120   -401260.512   3758719.132
10 0 59248  64782.000000  0    5196808.553   -549517.960   4478638.287
10 0 59248  64902.000000  0    4547393.839   -677621.389   5119720.539
10 0 59248  65022.000000  0    3816492.941   -781807.129   5670712.126
10 0 59248  65142.000000  0    3017347.114   -858949.714   6121954.060
10 0 59248  65262.000000  0    2164427.371   -906639.167   6465546.544
10 0 59248  65382.000000  0    1273167.601   -923241.152   6695481.820
10 0 59248  65502.000000  0     359681.019   -907939.070   6807744.335
10 0 59248  65622.000000  0    -559532.874   -860756.723   6800375.292
10 0 59248  65742.000000  0   -1467885.502   -782562.159   6673503.619
10 0 59248  65862.000000  0   -2348997.163   -675051.739   6429343.488
10 0 59248  65982.000000  0   -3186990.933   -540714.986   6072158.437
10 0 59248  66102.000000  0   -3966779.909   -382780.623   5608192.905
10 0 59248  66222.000000  0   -4674343.360   -205145.184   5045569.685
10 0 59248  66342.000000  0   -5296985.670    -12285.006   4394153.122
10 0 59248  66462.000000  0   -5823572.513    190846.546   3665380.235
10 0 59248  66582.000000  0   -6244738.857    398934.930   2872062.365
10 0 59248  66702.000000  0   -6553065.805    606430.978   2028160.661
10 0 59248  66822.000000  0   -6743220.735    807685.008   1148537.246
10 0 59248  66942.000000  0   -6812057.133    997084.729    248687.384
10 0 59248  67062.000000  0   -6758670.305   1169194.142   -655542.238
10 0 59248  67182.000000  0   -6584406.619   1318889.365  -1548241.982
10 0 59248  67302.000000  0   -6292827.888   1441487.533  -2413726.605
10 0 59248  67422.000000  0   -5889633.374   1532867.518  -3236818.074
10 0 59248  67542.000000  0   -5382537.178   1589576.972  -4003117.318
10 0 59248  67662.000000  0   -4781107.624   1608923.546  -4699255.910
10 0 59248  67782.000000  0   -4096574.234   1589049.294  -5313125.046
10 0 59248  67902.000000  0   -3341607.390   1528986.328  -5834077.842
10 0 59248  68022.000000  0   -2530076.902   1428692.945  -6253103.802
10 0 59248  68142.000000  0   -1676793.147   1289069.699  -6562973.898
10 0 59248  68262.000000  0    -797235.510   1111956.078  -6758353.158
10 0 59248  68382.000000  0      92724.525    900106.942  -6835881.642
10 0 59248  68502.000000  0     977102.075    657150.684  -6794225.736
10 0 59248  68622.000000  0    1840079.266    387528.337  -6634101.116
10 0 59248  68742.000000  0    2666282.435     96414.370  -6358261.224
10 0 59248  68862.000000  0    3441050.857   -210378.785  -5971455.361
10 0 59248  68982.000000  0    4150694.108   -526512.349  -5480354.322
99
